STARLINK-37115
1 68297U 26057D   26104.32296808  .00182284  00000+0  92925-3 0  9997
2 68297  97.2846 228.5293 0003340 107.3712 252.7922 15.80891430  3890
STARLINK-36355
1 68298U 26057E   26104.83013193  .00216204  00000+0  10987-2 0  9995
2 68298  97.2844 229.0656 0001283  65.4173 294.7229 15.80875673  3973
STARLINK-37118
1 68299U 26057F   26104.82711543  .00206454  00000+0  10511-2 0  9998
2 68299  97.2847 229.0700 0003724 178.1558 181.9724 15.80855613  3977
STARLINK-36875
1 68300U 26057G   26104.82787715  .00091386  00000+0  47212-3 0  9990
2 68300  97.2849 229.0693 0001362  73.5259 286.6159 15.80850033  3971
STARLINK-37099
1 68301U 26057H   26104.31996367  .00287988  00000+0  14498-2 0  9994
2 68301  97.2840 228.5344 0000803  68.7773 291.3581 15.80897009  3893
STARLINK-37007
1 68302U 26057J   26104.82487574  .00326316  00000+0  16306-2 0  9995
2 68302  97.2858 229.0714 0002124  37.9939 322.1478 15.80960085  3972
STARLINK-36300
1 68303U 26057K   26104.63571693  .00129247  00000+0  66421-3 0  9999
2 68303  97.2849 228.8704 0001350  79.3663 280.7757 15.80860084  3947
STARLINK-36849
1 68304U 26057L   26104.63421523  .00071511  00000+0  37119-3 0  9998
2 68304  97.2854 228.8729 0001733  74.1300 286.0159 15.80805472  3942
STARLINK-36277
1 68305U 26057M   26104.85064492  .00226149  00000+0  14772-2 0  9999
2 68305  97.2849 229.0345 0003645  85.8030 274.3652 15.75187533  3973
STARLINK-36307
1 68306U 26057N   26104.82336751  .00204782  00000+0  10428-2 0  9990
2 68306  97.2849 229.0740 0001248  55.4533 304.6853 15.80860762  3979
STARLINK-36264
1 68307U 26057P   26104.83828683  .00268090  00000+0  17368-2 0  9994
2 68307  97.2840 229.0515 0001867  65.8352 294.3109 15.75265269  3976
STARLINK-37138
1 68308U 26057Q   26104.83335647 -.00038907  00000+0 -26085-3 0  9999
2 68308  97.2862 229.0518 0001286  93.6010 248.5950 15.75218509  4857
STARLINK-37149
1 68309U 26057R   26104.84004130  .00146457  00000+0  96276-3 0  9998
2 68309  97.2866 229.0462 0001017 251.1892 108.9262 15.75268713  3970
STARLINK-37148
1 68310U 26057S   26104.83335647 -.00027084  00000+0 -18115-3 0  9991
2 68310  97.2862 229.0656 0001360  93.5270 280.6707 15.75207394  5075
STARLINK-37140
1 68311U 26057T   26104.88291963  .00172198  00000+0  88053-3 0  9992
2 68311  97.2853 229.1456 0001841  74.6397 285.5074 15.80854431  3984
STARLINK-36854
1 68312U 26057U   26104.88140525  .00193001  00000+0  98276-3 0  9994
2 68312  97.2858 229.1462 0000831  90.7804 269.3559 15.80892797  3982
