[{"OBJECT_NAME":"STARLINK-37115","OBJECT_ID":"2026-057D","EPOCH":"2026-04-14T07:45:04.442112","MEAN_MOTION":15.8089143,"ECCENTRICITY":0.00033404,"INCLINATION":97.2846,"RA_OF_ASC_NODE":228.5293,"ARG_OF_PERICENTER":107.3712,"MEAN_ANOMALY":252.7922,"EPHEMERIS_TYPE":0,"CLASSIFICATION_TYPE":"U","NORAD_CAT_ID":68297,"ELEMENT_SET_NO":999,"REV_AT_EPOCH":389,"BSTAR":0.00092924884,"MEAN_MOTION_DOT":0.00182284,"MEAN_MOTION_DDOT":0},{"OBJECT_NAME":"STARLINK-36355","OBJECT_ID":"2026-057E","EPOCH":"2026-04-14T19:55:23.398752","MEAN_MOTION":15.80875673,"ECCENTRICITY":0.0001283,"INCLINATION":97.2844,"RA_OF_ASC_NODE":229.0656,"ARG_OF_PERICENTER":65.4173,"MEAN_ANOMALY":294.7229,"EPHEMERIS_TYPE":0,"CLASSIFICATION_TYPE":"U","NORAD_CAT_ID":68298,"ELEMENT_SET_NO":999,"REV_AT_EPOCH":397,"BSTAR":0.0010987,"MEAN_MOTION_DOT":0.00216204,"MEAN_MOTION_DDOT":0},{"OBJECT_NAME":"STARLINK-37118","OBJECT_ID":"2026-057F","EPOCH":"2026-04-14T19:51:02.773152","MEAN_MOTION":15.80855613,"ECCENTRICITY":0.0003724,"INCLINATION":97.2847,"RA_OF_ASC_NODE":229.07,"ARG_OF_PERICENTER":178.1558,"MEAN_ANOMALY":181.9724,"EPHEMERIS_TYPE":0,"CLASSIFICATION_TYPE":"U","NORAD_CAT_ID":68299,"ELEMENT_SET_NO":999,"REV_AT_EPOCH":397,"BSTAR":0.0010511,"MEAN_MOTION_DOT":0.00206454,"MEAN_MOTION_DDOT":0},{"OBJECT_NAME":"STARLINK-36875","OBJECT_ID":"2026-057G","EPOCH":"2026-04-14T19:52:08.585760","MEAN_MOTION":15.80850033,"ECCENTRICITY":0.0001362,"INCLINATION":97.2849,"RA_OF_ASC_NODE":229.0693,"ARG_OF_PERICENTER":73.5259,"MEAN_ANOMALY":286.6159,"EPHEMERIS_TYPE":0,"CLASSIFICATION_TYPE":"U","NORAD_CAT_ID":68300,"ELEMENT_SET_NO":999,"REV_AT_EPOCH":397,"BSTAR":0.00047212,"MEAN_MOTION_DOT":0.00091386,"MEAN_MOTION_DDOT":0},{"OBJECT_NAME":"STARLINK-37099","OBJECT_ID":"2026-057H","EPOCH":"2026-04-14T07:40:44.861088","MEAN_MOTION":15.80897009,"ECCENTRICITY":8.03e-5,"INCLINATION":97.284,"RA_OF_ASC_NODE":228.5344,"ARG_OF_PERICENTER":68.7773,"MEAN_ANOMALY":291.3581,"EPHEMERIS_TYPE":0,"CLASSIFICATION_TYPE":"U","NORAD_CAT_ID":68301,"ELEMENT_SET_NO":999,"REV_AT_EPOCH":389,"BSTAR":0.0014497521,"MEAN_MOTION_DOT":0.00287988,"MEAN_MOTION_DDOT":0},{"OBJECT_NAME":"STARLINK-37007","OBJECT_ID":"2026-057J","EPOCH":"2026-04-14T19:47:49.263936","MEAN_MOTION":15.80960085,"ECCENTRICITY":0.0002124,"INCLINATION":97.2858,"RA_OF_ASC_NODE":229.0714,"ARG_OF_PERICENTER":37.9939,"MEAN_ANOMALY":322.1478,"EPHEMERIS_TYPE":0,"CLASSIFICATION_TYPE":"U","NORAD_CAT_ID":68302,"ELEMENT_SET_NO":999,"REV_AT_EPOCH":397,"BSTAR":0.0016306,"MEAN_MOTION_DOT":0.00326316,"MEAN_MOTION_DDOT":0},{"OBJECT_NAME":"STARLINK-36300","OBJECT_ID":"2026-057K","EPOCH":"2026-04-14T15:15:25.942752","MEAN_MOTION":15.80860084,"ECCENTRICITY":0.000135,"INCLINATION":97.2849,"RA_OF_ASC_NODE":228.8704,"ARG_OF_PERICENTER":79.3663,"MEAN_ANOMALY":280.7757,"EPHEMERIS_TYPE":0,"CLASSIFICATION_TYPE":"U","NORAD_CAT_ID":68303,"ELEMENT_SET_NO":999,"REV_AT_EPOCH":394,"BSTAR":0.00066421,"MEAN_MOTION_DOT":0.00129247,"MEAN_MOTION_DDOT":0},{"OBJECT_NAME":"STARLINK-36849","OBJECT_ID":"2026-057L","EPOCH":"2026-04-14T15:13:16.195872","MEAN_MOTION":15.80805472,"ECCENTRICITY":0.0001733,"INCLINATION":97.2854,"RA_OF_ASC_NODE":228.8729,"ARG_OF_PERICENTER":74.13,"MEAN_ANOMALY":286.0159,"EPHEMERIS_TYPE":0,"CLASSIFICATION_TYPE":"U","NORAD_CAT_ID":68304,"ELEMENT_SET_NO":999,"REV_AT_EPOCH":394,"BSTAR":0.00037119,"MEAN_MOTION_DOT":0.00071511,"MEAN_MOTION_DDOT":0},{"OBJECT_NAME":"STARLINK-36277","OBJECT_ID":"2026-057M","EPOCH":"2026-04-14T20:24:55.721088","MEAN_MOTION":15.75187533,"ECCENTRICITY":0.0003645,"INCLINATION":97.2849,"RA_OF_ASC_NODE":229.0345,"ARG_OF_PERICENTER":85.803,"MEAN_ANOMALY":274.3652,"EPHEMERIS_TYPE":0,"CLASSIFICATION_TYPE":"U","NORAD_CAT_ID":68305,"ELEMENT_SET_NO":999,"REV_AT_EPOCH":397,"BSTAR":0.0014772,"MEAN_MOTION_DOT":0.00226149,"MEAN_MOTION_DDOT":0},{"OBJECT_NAME":"STARLINK-36307","OBJECT_ID":"2026-057N","EPOCH":"2026-04-14T19:45:38.952864","MEAN_MOTION":15.80860762,"ECCENTRICITY":0.0001248,"INCLINATION":97.2849,"RA_OF_ASC_NODE":229.074,"ARG_OF_PERICENTER":55.4533,"MEAN_ANOMALY":304.6853,"EPHEMERIS_TYPE":0,"CLASSIFICATION_TYPE":"U","NORAD_CAT_ID":68306,"ELEMENT_SET_NO":999,"REV_AT_EPOCH":397,"BSTAR":0.0010428,"MEAN_MOTION_DOT":0.00204782,"MEAN_MOTION_DDOT":0},{"OBJECT_NAME":"STARLINK-36264","OBJECT_ID":"2026-057P","EPOCH":"2026-04-14T20:07:07.982112","MEAN_MOTION":15.75265269,"ECCENTRICITY":0.0001867,"INCLINATION":97.284,"RA_OF_ASC_NODE":229.0515,"ARG_OF_PERICENTER":65.8352,"MEAN_ANOMALY":294.3109,"EPHEMERIS_TYPE":0,"CLASSIFICATION_TYPE":"U","NORAD_CAT_ID":68307,"ELEMENT_SET_NO":999,"REV_AT_EPOCH":397,"BSTAR":0.0017368,"MEAN_MOTION_DOT":0.0026809,"MEAN_MOTION_DDOT":0},{"OBJECT_NAME":"STARLINK-37138","OBJECT_ID":"2026-057Q","EPOCH":"2026-04-14T20:00:01.999008","MEAN_MOTION":15.75218509,"ECCENTRICITY":0.0001286,"INCLINATION":97.2862,"RA_OF_ASC_NODE":229.0518,"ARG_OF_PERICENTER":93.601,"MEAN_ANOMALY":248.595,"EPHEMERIS_TYPE":0,"CLASSIFICATION_TYPE":"U","NORAD_CAT_ID":68308,"ELEMENT_SET_NO":999,"REV_AT_EPOCH":485,"BSTAR":-0.00026085,"MEAN_MOTION_DOT":-0.00038907,"MEAN_MOTION_DDOT":0},{"OBJECT_NAME":"STARLINK-37149","OBJECT_ID":"2026-057R","EPOCH":"2026-04-14T20:09:39.568320","MEAN_MOTION":15.75268713,"ECCENTRICITY":0.0001017,"INCLINATION":97.2866,"RA_OF_ASC_NODE":229.0462,"ARG_OF_PERICENTER":251.1892,"MEAN_ANOMALY":108.9262,"EPHEMERIS_TYPE":0,"CLASSIFICATION_TYPE":"U","NORAD_CAT_ID":68309,"ELEMENT_SET_NO":999,"REV_AT_EPOCH":397,"BSTAR":0.00096276,"MEAN_MOTION_DOT":0.00146457,"MEAN_MOTION_DDOT":0},{"OBJECT_NAME":"STARLINK-37148","OBJECT_ID":"2026-057S","EPOCH":"2026-04-14T20:00:01.999008","MEAN_MOTION":15.75207394,"ECCENTRICITY":0.000136,"INCLINATION":97.2862,"RA_OF_ASC_NODE":229.0656,"ARG_OF_PERICENTER":93.527,"MEAN_ANOMALY":280.6707,"EPHEMERIS_TYPE":0,"CLASSIFICATION_TYPE":"U","NORAD_CAT_ID":68310,"ELEMENT_SET_NO":999,"REV_AT_EPOCH":507,"BSTAR":-0.00018115,"MEAN_MOTION_DOT":-0.00027084,"MEAN_MOTION_DDOT":0},{"OBJECT_NAME":"STARLINK-37140","OBJECT_ID":"2026-057T","EPOCH":"2026-04-14T21:11:24.256032","MEAN_MOTION":15.80854431,"ECCENTRICITY":0.0001841,"INCLINATION":97.2853,"RA_OF_ASC_NODE":229.1456,"ARG_OF_PERICENTER":74.6397,"MEAN_ANOMALY":285.5074,"EPHEMERIS_TYPE":0,"CLASSIFICATION_TYPE":"U","NORAD_CAT_ID":68311,"ELEMENT_SET_NO":999,"REV_AT_EPOCH":398,"BSTAR":0.00088053,"MEAN_MOTION_DOT":0.00172198,"MEAN_MOTION_DDOT":0},{"OBJECT_NAME":"STARLINK-36854","OBJECT_ID":"2026-057U","EPOCH":"2026-04-14T21:09:13.413600","MEAN_MOTION":15.80892797,"ECCENTRICITY":8.31e-5,"INCLINATION":97.2858,"RA_OF_ASC_NODE":229.1462,"ARG_OF_PERICENTER":90.7804,"MEAN_ANOMALY":269.3559,"EPHEMERIS_TYPE":0,"CLASSIFICATION_TYPE":"U","NORAD_CAT_ID":68312,"ELEMENT_SET_NO":999,"REV_AT_EPOCH":398,"BSTAR":0.00098276,"MEAN_MOTION_DOT":0.00193001,"MEAN_MOTION_DDOT":0}]
